OBJECT_NAME,OBJECT_ID,EPOCH,MEAN_MOTION,ECCENTRICITY,INCLINATION,RA_OF_ASC_NODE,ARG_OF_PERICENTER,MEAN_ANOMALY,EPHEMERIS_TYPE,CLASSIFICATION_TYPE,NORAD_CAT_ID,ELEMENT_SET_NO,REV_AT_EPOCH,BSTAR,MEAN_MOTION_DOT,MEAN_MOTION_DDOT
STARLINK-30307,2023-131R,2026-07-21T04:52:51.306240,15.27578279,.00008639,43.0031,138.6069,262.7085,97.3669,0,U,57747,999,16033,.37799075E-4,.778E-5,0
STARLINK-30356,2023-131S,2026-07-21T05:31:30.260640,15.27583283,.00008176,43.0029,137.9565,261.4917,98.5842,0,U,57748,999,16034,.48096301E-4,.1062E-4,0
STARLINK-30366,2023-131T,2026-07-21T04:08:56.449248,15.25901569,.00014015,43.0022,142.6600,262.9874,97.0817,0,U,57749,999,16028,.97504602E-4,.2293E-4,0
STARLINK-30357,2023-131U,2026-07-20T06:09:02.848608,15.27578707,.00012633,43.0027,151.2012,260.7140,99.3569,0,U,57750,999,16009,.43006786E-4,.921E-5,0
STARLINK-30370,2023-131V,2026-07-21T11:12:25.356960,15.32696452,.00037226,43.0002,119.2540,203.5690,156.4993,0,U,57751,999,16058,.7830516E-3,.25062E-3,0
STARLINK-30368,2023-131W,2026-07-21T05:02:04.786368,15.27582725,.00014122,43.0047,138.6286,266.8784,93.1906,0,U,57752,999,16033,.21489956E-4,.329E-5,0
STARLINK-30343,2023-131X,2026-07-21T13:26:36.737088,15.27580179,.00013556,43.0028,143.7901,271.7925,88.2772,0,U,57753,999,16030,.26119217E-4,.457E-5,0
WILDFIRE 4,2023-133A,2026-07-21T08:23:10.731264,13.86362833,.00089155,81.0042,333.3255,260.3893,99.6256,0,U,57756,999,14585,.92820967E-4,.118E-5,0
BB4,2023-133B,2026-07-21T14:29:51.758592,14.59877597,.0008207,81.0015,323.2609,225.8594,134.1930,0,U,57757,999,14645,.17455517E-3,.849E-5,0
WILDFIRE 3,2023-133C,2026-07-21T14:19:25.960800,13.86284007,.00076602,80.9989,332.8807,259.0972,100.9323,0,U,57758,999,14586,.62886057E-4,.84E-6,0
BB3,2023-133D,2026-07-21T13:18:51.188832,14.73034457,.00565244,80.9981,312.2399,199.2122,160.6953,0,U,57760,999,14710,.23933576E-3,.1594E-4,0
WILDFIRE 7,2023-133E,2026-07-21T16:03:48.905856,13.85107857,.00045791,81.0013,334.8530,305.6903,54.3826,0,U,57761,999,14576,.61338932E-4,.8E-6,0
CHECKMATE 10,2023-133F,2026-07-21T08:29:25.788480,13.85473378,.0005358,81.0016,334.6022,275.4066,84.6479,0,U,57762,999,14576,-.23315336E-4,-.16E-6,0
WILDFIRE 6,2023-133G,2026-07-21T08:06:36.740736,13.85431515,.00048443,80.9972,334.3293,288.3941,71.6688,0,U,57763,999,14574,.51272098E-4,.69E-6,0
WILDFIRE 1,2023-133H,2026-07-21T14:51:23.420448,13.85736353,.00054863,81.0020,333.9009,265.7894,94.2636,0,U,57764,999,14582,.53822006E-4,.73E-6,0
WILDFIRE 9,2023-133J,2026-07-21T15:41:33.842688,13.85382513,.00050026,81.0060,334.8840,279.3022,80.7569,0,U,57765,999,14579,.7936267E-5,.2E-6,0
WILDFIRE 10,2023-133K,2026-07-21T08:17:42.276480,13.85602820,.00055241,81.0040,334.6862,269.9020,90.1503,0,U,57766,999,14577,-.12952491E-3,-.137E-5,0
WILDFIRE 2,2023-133L,2026-07-21T08:30:52.678368,13.85459256,.00045946,80.9957,334.6109,289.9148,70.1513,0,U,57767,999,14573,.52217794E-4,.7E-6,0
WILDFIRE 8,2023-133M,2026-07-21T08:06:43.588800,13.85432833,.00048839,80.9972,334.1503,280.0427,80.0178,0,U,57768,999,14576,.48496033E-4,.66E-6,0
WILDFIRE 5,2023-133N,2026-07-21T15:55:58.086336,13.85495862,.00051714,81.0050,334.7167,274.6506,85.4060,0,U,57769,999,14580,-.6925859E-5,.3E-7,0
STARLINK-30397,2023-134A,2026-07-21T14:19:28.679808,15.27575537,.00010454,43.0037,158.4740,263.3955,96.6777,0,U,57771,999,15998,.75757518E-4,.1823E-4,0
STARLINK-30354,2023-134B,2026-07-21T05:32:28.469184,15.27578855,.00016114,43.0021,163.4303,276.7392,83.3276,0,U,57772,999,15989,.447868E-4,.97E-5,0
STARLINK-30383,2023-134C,2026-07-20T05:56:27.049056,15.27570640,.00024338,43.0012,168.9564,299.1085,60.9523,0,U,57773,999,15974,.74202113E-4,.1779E-4,0
STARLINK-30384,2023-134D,2026-07-21T04:00:10.572192,15.27576079,.00015227,43.0033,163.8153,256.5391,103.5291,0,U,57774,999,15988,.28929555E-4,.534E-5,0
STARLINK-30305,2023-134E,2026-07-21T14:25:00.863616,15.27585640,.00011166,43.0041,158.4988,264.4830,95.5894,0,U,57775,999,15998,.79435769E-4,.1925E-4,0
STARLINK-30360,2023-134F,2026-07-21T14:26:52.351584,15.27578954,.00016788,43.0026,158.5095,266.0347,94.0313,0,U,57776,999,15998,.29758819E-4,.557E-5,0
STARLINK-30355,2023-134G,2026-07-21T14:07:39.367776,15.27578018,.00009356,43.0014,161.7892,259.9352,100.1394,0,U,57777,999,15993,.32777324E-4,.64E-5,0
STARLINK-30385,2023-134H,2026-07-21T13:18:27.792576,15.27581515,.00009541,43.0044,147.0051,258.2501,101.8244,0,U,57778,999,15995,.2880109E-4,.531E-5,0
STARLINK-30359,2023-134J,2026-07-20T23:31:25.591584,15.27576013,.00013205,43.0033,150.4728,279.9223,80.1479,0,U,57779,999,16002,.503351E-5,-.124E-5,0
STARLINK-30380,2023-134K,2026-07-21T13:47:57.245568,15.27647156,.00010011,43.0015,158.2956,292.3712,67.7034,0,U,57780,999,15998,.11801499E-3,.2993E-4,0
