{"epoch":1784710044,"count":18256,"objects":[{"id":"57747","name":"STARLINK-30307","type":"PAYLOAD","l1":"1 57747U 23131R   26202.20337160  .00000778  00000-0  37799-4 0  9995","l2":"2 57747  43.0031 138.6069 0000864 262.7085  97.3669 15.27578279160330"},{"id":"57748","name":"STARLINK-30356","type":"PAYLOAD","l1":"1 57748U 23131S   26202.23021135  .00001062  00000-0  48096-4 0  9990","l2":"2 57748  43.0029 137.9565 0000818 261.4917  98.5842 15.27583283160348"},{"id":"57749","name":"STARLINK-30366","type":"PAYLOAD","l1":"1 57749U 23131T   26202.17287557  .00002293  00000-0  97505-4 0  9992","l2":"2 57749  43.0022 142.6600 0001401 262.9874  97.0817 15.25901569160280"},{"id":"57750","name":"STARLINK-30357","type":"PAYLOAD","l1":"1 57750U 23131U   26201.25628297  .00000921  00000-0  43007-4 0  9996","l2":"2 57750  43.0027 151.2012 0001263 260.7140  99.3569 15.27578707160092"},{"id":"57751","name":"STARLINK-30370","type":"PAYLOAD","l1":"1 57751U 23131V   26202.46696015  .00025062  00000-0  78305-3 0  9995","l2":"2 57751  43.0002 119.2540 0003723 203.5690 156.4993 15.32696452160588"},{"id":"57752","name":"STARLINK-30368","type":"PAYLOAD","l1":"1 57752U 23131W   26202.20977762  .00000329  00000-0  21490-4 0  9992","l2":"2 57752  43.0047 138.6286 0001412 266.8784  93.1906 15.27582725160334"},{"id":"57753","name":"STARLINK-30343","type":"PAYLOAD","l1":"1 57753U 23131X   26202.56014742  .00000457  00000-0  26119-4 0  9997","l2":"2 57753  43.0028 143.7901 0001356 271.7925  88.2772 15.27580179160308"},{"id":"57756","name":"WILDFIRE 4","type":"PAYLOAD","l1":"1 57756U 23133A   26202.34942976  .00000118  00000-0  92821-4 0  9994","l2":"2 57756  81.0042 333.3255 0008915 260.3893  99.6256 13.86362833145858"},{"id":"57757","name":"BB4","type":"PAYLOAD","l1":"1 57757U 23133B   26202.60407128  .00000849  00000-0  17456-3 0  9990","l2":"2 57757  81.0015 323.2609 0008207 225.8594 134.1930 14.59877597146458"},{"id":"57758","name":"WILDFIRE 3","type":"PAYLOAD","l1":"1 57758U 23133C   26202.59682825  .00000084  00000-0  62886-4 0  9997","l2":"2 57758  80.9989 332.8807 0007660 259.0972 100.9323 13.86284007145862"},{"id":"57760","name":"BB3","type":"PAYLOAD","l1":"1 57760U 23133D   26202.55475913  .00001594  00000-0  23934-3 0  9991","l2":"2 57760  80.9981 312.2399 0056524 199.2122 160.6953 14.73034457147100"},{"id":"57761","name":"WILDFIRE 7","type":"PAYLOAD","l1":"1 57761U 23133E   26202.66931604  .00000080  00000-0  61339-4 0  9999","l2":"2 57761  81.0013 334.8530 0004579 305.6903  54.3826 13.85107857145764"},{"id":"57762","name":"CHECKMATE 10","type":"PAYLOAD","l1":"1 57762U 23133F   26202.35377070 -.00000016  00000-0 -23315-4 0  9990","l2":"2 57762  81.0016 334.6022 0005358 275.4066  84.6479 13.85473378145766"},{"id":"57763","name":"WILDFIRE 6","type":"PAYLOAD","l1":"1 57763U 23133G   26202.33792524  .00000069  00000-0  51272-4 0  9993","l2":"2 57763  80.9972 334.3293 0004844 288.3941  71.6688 13.85431515145740"},{"id":"57764","name":"WILDFIRE 1","type":"PAYLOAD","l1":"1 57764U 23133H   26202.61902107  .00000073  00000-0  53822-4 0  9993","l2":"2 57764  81.0020 333.9009 0005486 265.7894  94.2636 13.85736353145827"},{"id":"57765","name":"WILDFIRE 9","type":"PAYLOAD","l1":"1 57765U 23133J   26202.65386392  .00000020  00000-0  79363-5 0  9991","l2":"2 57765  81.0060 334.8840 0005003 279.3022  80.7569 13.85382513145790"},{"id":"57766","name":"WILDFIRE 10","type":"PAYLOAD","l1":"1 57766U 23133K   26202.34562820 -.00000137  00000-0 -12952-3 0  9990","l2":"2 57766  81.0040 334.6862 0005524 269.9020  90.1503 13.85602820145779"},{"id":"57767","name":"WILDFIRE 2","type":"PAYLOAD","l1":"1 57767U 23133L   26202.35477637  .00000070  00000-0  52218-4 0  9997","l2":"2 57767  80.9957 334.6109 0004595 289.9148  70.1513 13.85459256145737"},{"id":"57768","name":"WILDFIRE 8","type":"PAYLOAD","l1":"1 57768U 23133M   26202.33800450  .00000066  00000-0  48496-4 0  9997","l2":"2 57768  80.9972 334.1503 0004884 280.0427  80.0178 13.85432833145763"},{"id":"57769","name":"WILDFIRE 5","type":"PAYLOAD","l1":"1 57769U 23133N   26202.66386674  .00000003  00000-0 -69259-5 0  9994","l2":"2 57769  81.0050 334.7167 0005171 274.6506  85.4060 13.85495862145807"},{"id":"57771","name":"STARLINK-30397","type":"PAYLOAD","l1":"1 57771U 23134A   26202.59685972  .00001823  00000-0  75758-4 0  9993","l2":"2 57771  43.0037 158.4740 0001045 263.3955  96.6777 15.27575537159989"},{"id":"57772","name":"STARLINK-30354","type":"PAYLOAD","l1":"1 57772U 23134B   26202.23088506  .00000970  00000-0  44787-4 0  9995","l2":"2 57772  43.0021 163.4303 0001611 276.7392  83.3276 15.27578855159899"},{"id":"57773","name":"STARLINK-30383","type":"PAYLOAD","l1":"1 57773U 23134C   26201.24753529  .00001779  00000-0  74202-4 0  9993","l2":"2 57773  43.0012 168.9564 0002434 299.1085  60.9523 15.27570640159745"},{"id":"57774","name":"STARLINK-30384","type":"PAYLOAD","l1":"1 57774U 23134D   26202.16678903  .00000534  00000-0  28930-4 0  9993","l2":"2 57774  43.0033 163.8153 0001523 256.5391 103.5291 15.27576079159885"},{"id":"57775","name":"STARLINK-30305","type":"PAYLOAD","l1":"1 57775U 23134E   26202.60070444  .00001925  00000-0  79436-4 0  9991","l2":"2 57775  43.0041 158.4988 0001117 264.4830  95.5894 15.27585640159980"},{"id":"57776","name":"STARLINK-30360","type":"PAYLOAD","l1":"1 57776U 23134F   26202.60199481  .00000557  00000-0  29759-4 0  9998","l2":"2 57776  43.0026 158.5095 0001679 266.0347  94.0313 15.27578954159988"},{"id":"57777","name":"STARLINK-30355","type":"PAYLOAD","l1":"1 57777U 23134G   26202.58865009  .00000640  00000-0  32777-4 0  9999","l2":"2 57777  43.0014 161.7892 0000936 259.9352 100.1394 15.27578018159933"},{"id":"57778","name":"STARLINK-30385","type":"PAYLOAD","l1":"1 57778U 23134H   26202.55448834  .00000531  00000-0  28801-4 0  9992","l2":"2 57778  43.0044 147.0051 0000954 258.2501 101.8244 15.27581515159959"},{"id":"57779","name":"STARLINK-30359","type":"PAYLOAD","l1":"1 57779U 23134J   26201.98015731 -.00000124  00000-0  50335-5 0  9992","l2":"2 57779  43.0033 150.4728 0001320 279.9223  80.1479 15.27576013160022"},{"id":"57780","name":"STARLINK-30380","type":"PAYLOAD","l1":"1 57780U 23134K   26202.57496812  .00002993  00000-0  11801-3 0  9991","l2":"2 57780  43.0015 158.2956 0001001 292.3712  67.7034 15.27647156159989"}]}